CTC2_L_00346001-01
1 10000U 22339LV  26075.70045139  .00000000  00000+0  00000-0 0  9998
2 10000  75.0000   0.0000 0000000   0.0000   0.0000 13.42494874    12
CTC2_L_00346001-02
1 10001U 22562NP  26075.70045139  .00000000  00000+0  00000-0 0  9997
2 10001  75.0000   0.0000 0000000   0.0000  90.0000 13.42494874    12
CTC2_L_00346001-03
1 10002U 26862Z   26075.70045139  .00000000  00000+0  00000-0 0  9995
2 10002  75.0000   0.0000 0000000   0.0000 180.0000 13.42494874    13
CTC2_L_00346001-04
1 10003U 23971KT  26075.70045139  .00000000  00000+0  00000-0 0  9994
2 10003  75.0000   0.0000 0000000   0.0000 270.0000 13.42494874    14
CTC2_L_00346002-01
1 10004U 22940LZ  26075.70045139  .00000000  00000+0  00000-0 0  9990
2 10004  75.0000  12.0000 0000000   0.0000  12.0000 13.42494874    12
CTC2_L_00346002-02
1 10005U 24076ZG  26075.70045139  .00000000  00000+0  00000-0 0  9993
2 10005  75.0000  12.0000 0000000   0.0000 102.0000 13.42494874    13
CTC2_L_00346002-03
1 10006U 25118RL  26075.70045139  .00000000  00000+0  00000-0 0  9992
2 10006  75.0000  12.0000 0000000   0.0000 192.0000 13.42494874    13
CTC2_L_00346002-04
1 10007U 24442LN  26075.70045139  .00000000  00000+0  00000-0 0  9992
2 10007  75.0000  12.0000 0000000   0.0000 282.0000 13.42494874    14
CTC2_L_00346003-01
1 10008U 25793AA  26075.70045139  .00000000  00000+0  00000-0 0  9993
2 10008  75.0000  24.0000 0000000   0.0000  24.0000 13.42494874    12
CTC2_L_00346003-02
1 10009U 23703SM  26075.70045139  .00000000  00000+0  00000-0 0  9993
2 10009  75.0000  24.0000 0000000   0.0000 114.0000 13.42494874    13
CTC2_L_00346003-03
1 10010U 25695XC  26075.70045139  .00000000  00000+0  00000-0 0  9997
2 10010  75.0000  24.0000 0000000   0.0000 204.0000 13.42494874    15
CTC2_L_00346003-04
1 10011U 22612DM  26075.70045139  .00000000  00000+0  00000-0 0  9994
2 10011  75.0000  24.0000 0000000   0.0000 294.0000 13.42494874    15
CTC2_L_00346004-01
1 10012U 25580ZZ  26075.70045139  .00000000  00000+0  00000-0 0  9992
2 10012  75.0000  36.0000 0000000   0.0000  36.0000 13.42494874    13
CTC2_L_00346004-02
1 10013U 23446XX  26075.70045139  .00000000  00000+0  00000-0 0  9992
2 10013  75.0000  36.0000 0000000   0.0000 126.0000 13.42494874    14
CTC2_L_00346004-03
1 10014U 25633F   26075.70045139  .00000000  00000+0  00000-0 0  9993
2 10014  75.0000  36.0000 0000000   0.0000 216.0000 13.42494874    15
CTC2_L_00346004-04
1 10015U 25994KI  26075.70045139  .00000000  00000+0  00000-0 0  9994
2 10015  75.0000  36.0000 0000000   0.0000 306.0000 13.42494874    16
CTC2_L_00346005-01
1 10016U 23942YP  26075.70045139  .00000000  00000+0  00000-0 0  9996
2 10016  75.0000  48.0000 0000000   0.0000  48.0000 13.42494874    13
CTC2_L_00346005-02
1 10017U 24574QI  26075.70045139  .00000000  00000+0  00000-0 0  9999
2 10017  75.0000  48.0000 0000000   0.0000 138.0000 13.42494874    14
CTC2_L_00346005-03
1 10018U 25050GW  26075.70045139  .00000000  00000+0  00000-0 0  9990
2 10018  75.0000  48.0000 0000000   0.0000 228.0000 13.42494874    15
CTC2_L_00346005-04
1 10019U 23638EE  26075.70045139  .00000000  00000+0  00000-0 0  9991
2 10019  75.0000  48.0000 0000000   0.0000 318.0000 13.42494874    16
CTC2_L_00346006-01
1 10020U 22657ND  26075.70045139  .00000000  00000+0  00000-0 0  9993
2 10020  75.0000  60.0000 0000000   0.0000  60.0000 13.42494874    16
CTC2_L_00346006-02
1 10021U 24996TF  26075.70045139  .00000000  00000+0  00000-0 0  9992
2 10021  75.0000  60.0000 0000000   0.0000 150.0000 13.42494874    17
CTC2_L_00346006-03
1 10022U 25157AS  26075.70045139  .00000000  00000+0  00000-0 0  9993
2 10022  75.0000  60.0000 0000000   0.0000 240.0000 13.42494874    18
CTC2_L_00346006-04
1 10023U 26225BO  26075.70045139  .00000000  00000+0  00000-0 0  9991
2 10023  75.0000  60.0000 0000000   0.0000 330.0000 13.42494874    19
CTC2_L_00346007-01
1 10024U 26581SZ  26075.70045139  .00000000  00000+0  00000-0 0  9997
2 10024  75.0000  72.0000 0000000   0.0000  72.0000 13.42494874    16
CTC2_L_00346007-02
1 10025U 26840NF  26075.70045139  .00000000  00000+0  00000-0 0  9996
2 10025  75.0000  72.0000 0000000   0.0000 162.0000 13.42494874    17
CTC2_L_00346007-03
1 10026U 22142XJ  26075.70045139  .00000000  00000+0  00000-0 0  9998
2 10026  75.0000  72.0000 0000000   0.0000 252.0000 13.42494874    18
CTC2_L_00346007-04
1 10027U 26252QA  26075.70045139  .00000000  00000+0  00000-0 0  9995
2 10027  75.0000  72.0000 0000000   0.0000 342.0000 13.42494874    19
CTC2_L_00346008-01
1 10028U 24925SL  26075.70045139  .00000000  00000+0  00000-0 0  9991
2 10028  75.0000  84.0000 0000000   0.0000  84.0000 13.42494874    16
CTC2_L_00346008-02
1 10029U 22770AY  26075.70045139  .00000000  00000+0  00000-0 0  9998
2 10029  75.0000  84.0000 0000000   0.0000 174.0000 13.42494874    17
CTC2_L_00346008-03
1 10030U 22143WP  26075.70045139  .00000000  00000+0  00000-0 0  9994
2 10030  75.0000  84.0000 0000000   0.0000 264.0000 13.42494874    19
CTC2_L_00346008-04
1 10031U 25305FV  26075.70045139  .00000000  00000+0  00000-0 0  9998
2 10031  75.0000  84.0000 0000000   0.0000 354.0000 13.42494874    10
CTC2_L_00346009-01
1 10032U 26195WH  26075.70045139  .00000000  00000+0  00000-0 0  9997
2 10032  75.0000  96.0000 0000000   0.0000  96.0000 13.42494874    17
CTC2_L_00346009-02
1 10033U 22733QG  26075.70045139  .00000000  00000+0  00000-0 0  9992
2 10033  75.0000  96.0000 0000000   0.0000 186.0000 13.42494874    18
CTC2_L_00346009-03
1 10034U 22879JZ  26075.70045139  .00000000  00000+0  00000-0 0  9994
2 10034  75.0000  96.0000 0000000   0.0000 276.0000 13.42494874    19
CTC2_L_00346009-04
1 10035U 24336MQ  26075.70045139  .00000000  00000+0  00000-0 0  9995
2 10035  75.0000  96.0000 0000000   0.0000   6.0000 13.42494874    11
CTC2_L_00346010-01
1 10036U 22252QJ  26075.70045139  .00000000  00000+0  00000-0 0  9991
2 10036  75.0000 108.0000 0000000   0.0000 108.0000 13.42494874    19
CTC2_L_00346010-02
1 10037U 24894JG  26075.70045139  .00000000  00000+0  00000-0 0  9996
2 10037  75.0000 108.0000 0000000   0.0000 198.0000 13.42494874    19
CTC2_L_00346010-03
1 10038U 25971SE  26075.70045139  .00000000  00000+0  00000-0 0  9994
2 10038  75.0000 108.0000 0000000   0.0000 288.0000 13.42494874    10
CTC2_L_00346010-04
1 10039U 22341T   26075.70045139  .00000000  00000+0  00000-0 0  9993
2 10039  75.0000 108.0000 0000000   0.0000  18.0000 13.42494874    12
CTC2_L_00346011-01
1 10040U 26391AP  26075.70045139  .00000000  00000+0  00000-0 0  9994
2 10040  75.0000 120.0000 0000000   0.0000 120.0000 13.42494874    12
CTC2_L_00346011-02
1 10041U 23518VZ  26075.70045139  .00000000  00000+0  00000-0 0  9993
2 10041  75.0000 120.0000 0000000   0.0000 210.0000 13.42494874    13
CTC2_L_00346011-03
1 10042U 23897CM  26075.70045139  .00000000  00000+0  00000-0 0  9994
2 10042  75.0000 120.0000 0000000   0.0000 300.0000 13.42494874    14
CTC2_L_00346011-04
1 10043U 23741SG  26075.70045139  .00000000  00000+0  00000-0 0  9993
2 10043  75.0000 120.0000 0000000   0.0000  30.0000 13.42494874    15
CTC2_L_00346012-01
1 10044U 24873PA  26075.70045139  .00000000  00000+0  00000-0 0  9991
2 10044  75.0000 132.0000 0000000   0.0000 132.0000 13.42494874    12
CTC2_L_00346012-02
1 10045U 26132VU  26075.70045139  .00000000  00000+0  00000-0 0  9992
2 10045  75.0000 132.0000 0000000   0.0000 222.0000 13.42494874    13
CTC2_L_00346012-03
1 10046U 25336RP  26075.70045139  .00000000  00000+0  00000-0 0  9998
2 10046  75.0000 132.0000 0000000   0.0000 312.0000 13.42494874    14
CTC2_L_00346012-04
1 10047U 26569CM  26075.70045139  .00000000  00000+0  00000-0 0  9998
2 10047  75.0000 132.0000 0000000   0.0000  42.0000 13.42494874    15
CTC2_L_00346013-01
1 10048U 24983TB  26075.70045139  .00000000  00000+0  00000-0 0  9997
2 10048  75.0000 144.0000 0000000   0.0000 144.0000 13.42494874    12
CTC2_L_00346013-02
1 10049U 25762AW  26075.70045139  .00000000  00000+0  00000-0 0  9994
2 10049  75.0000 144.0000 0000000   0.0000 234.0000 13.42494874    13
CTC2_L_00346013-03
1 10050U 26503SW  26075.70045139  .00000000  00000+0  00000-0 0  9990
2 10050  75.0000 144.0000 0000000   0.0000 324.0000 13.42494874    15
CTC2_L_00346013-04
1 10051U 26344ZG  26075.70045139  .00000000  00000+0  00000-0 0  9994
2 10051  75.0000 144.0000 0000000   0.0000  54.0000 13.42494874    16
CTC2_L_00346014-01
1 10052U 26041VC  26075.70045139  .00000000  00000+0  00000-0 0  9999
2 10052  75.0000 156.0000 0000000   0.0000 156.0000 13.42494874    13
CTC2_L_00346014-02
1 10053U 24771KD  26075.70045139  .00000000  00000+0  00000-0 0  9998
2 10053  75.0000 156.0000 0000000   0.0000 246.0000 13.42494874    14
CTC2_L_00346014-03
1 10054U 23819PM  26075.70045139  .00000000  00000+0  00000-0 0  9991
2 10054  75.0000 156.0000 0000000   0.0000 336.0000 13.42494874    15
CTC2_L_00346014-04
1 10055U 26737XU  26075.70045139  .00000000  00000+0  00000-0 0  9994
2 10055  75.0000 156.0000 0000000   0.0000  66.0000 13.42494874    16
CTC2_L_00346015-01
1 10056U 22579MT  26075.70045139  .00000000  00000+0  00000-0 0  9995
2 10056  75.0000 168.0000 0000000   0.0000 168.0000 13.42494874    13
CTC2_L_00346015-02
1 10057U 25691QP  26075.70045139  .00000000  00000+0  00000-0 0  9994
2 10057  75.0000 168.0000 0000000   0.0000 258.0000 13.42494874    14
CTC2_L_00346015-03
1 10058U 23434GD  26075.70045139  .00000000  00000+0  00000-0 0  9998
2 10058  75.0000 168.0000 0000000   0.0000 348.0000 13.42494874    15
CTC2_L_00346015-04
1 10059U 24244II  26075.70045139  .00000000  00000+0  00000-0 0  9999
2 10059  75.0000 168.0000 0000000   0.0000  78.0000 13.42494874    16
CTC2_L_00346016-01
1 10060U 24740L   26075.70045139  .00000000  00000+0  00000-0 0  9992
2 10060  75.0000 180.0000 0000000   0.0000 180.0000 13.42494874    16
CTC2_L_00346016-02
1 10061U 23832OY  26075.70045139  .00000000  00000+0  00000-0 0  9994
2 10061  75.0000 180.0000 0000000   0.0000 270.0000 13.42494874    17
